{
  "type": "FeatureCollection",
  "features": [
    {
      "type": "Feature",
      "properties": {
        "norad_id": 29828,
        "name": "FENGYUN 1C DEB",
        "group": "fengyun-1c-debris",
        "lat": 74.23389105443925,
        "lon": 8.534793588236283,
        "alt_km": 830.9679624267128,
        "timestamp": "2025-12-22T11:33:20.710987+00:00",
        "meta_object_name": "FENGYUN 1C DEB",
        "meta_object_id": "1999-025DW",
        "meta_epoch": "2025-12-21T10:09:59.256864",
        "meta_mean_motion": 14.0818708,
        "meta_eccentricity": 0.00614611,
        "meta_inclination": 98.7693,
        "meta_ra_of_asc_node": 40.6491,
        "meta_arg_of_pericenter": 132.0079,
        "meta_mean_anomaly": 345.4677,
        "meta_ephemeris_type": 0,
        "meta_classification_type": "U",
        "meta_norad_cat_id": 29828,
        "meta_element_set_no": 999,
        "meta_rev_at_epoch": 96859,
        "meta_bstar": 0.00068531978,
        "meta_mean_motion_dot": 1.147e-05,
        "meta_mean_motion_ddot": 0,
        "tle_line1": "1 29828U 99025DW  25355.42360251  .00001147  00000+0  68532-3 0  9996",
        "tle_line2": "2 29828  98.7693  40.6491 0061461 132.0079 345.4677 14.08187080968597"
      },
      "geometry": {
        "type": "Point",
        "coordinates": [
          8.534793588236283,
          74.23389105443925
        ]
      }
    },
    {
      "type": "Feature",
      "properties": {
        "norad_id": 29832,
        "name": "FENGYUN 1C DEB",
        "group": "fengyun-1c-debris",
        "lat": 5.424531663378662,
        "lon": 107.6318397856188,
        "alt_km": 756.0269465266247,
        "timestamp": "2025-12-22T11:33:20.710997+00:00",
        "meta_object_name": "FENGYUN 1C DEB",
        "meta_object_id": "1999-025EA",
        "meta_epoch": "2025-12-22T03:17:13.036416",
        "meta_mean_motion": 14.56573699,
        "meta_eccentricity": 0.0192241,
        "meta_inclination": 98.8196,
        "meta_ra_of_asc_node": 108.1121,
        "meta_arg_of_pericenter": 254.2998,
        "meta_mean_anomaly": 103.6918,
        "meta_ephemeris_type": 0,
        "meta_classification_type": "U",
        "meta_norad_cat_id": 29832,
        "meta_element_set_no": 999,
        "meta_rev_at_epoch": 392,
        "meta_bstar": 0.00017437,
        "meta_mean_motion_dot": 9.32e-06,
        "meta_mean_motion_ddot": 0,
        "tle_line1": "1 29832U 99025EA  25356.13695644  .00000932  00000+0  17437-3 0  9996",
        "tle_line2": "2 29832  98.8196 108.1121 0192241 254.2998 103.6918 14.56573699  3926"
      },
      "geometry": {
        "type": "Point",
        "coordinates": [
          107.6318397856188,
          5.424531663378662
        ]
      }
    },
    {
      "type": "Feature",
      "properties": {
        "norad_id": 29833,
        "name": "FENGYUN 1C DEB",
        "group": "fengyun-1c-debris",
        "lat": 36.78085073957672,
        "lon": 167.12159009682009,
        "alt_km": 582.963717687403,
        "timestamp": "2025-12-22T11:33:20.711008+00:00",
        "meta_object_name": "FENGYUN 1C DEB",
        "meta_object_id": "1999-025EB",
        "meta_epoch": "2025-12-21T22:01:41.981664",
        "meta_mean_motion": 14.91292269,
        "meta_eccentricity": 0.0088595,
        "meta_inclination": 99.0777,
        "meta_ra_of_asc_node": 339.609,
        "meta_arg_of_pericenter": 227.1713,
        "meta_mean_anomaly": 132.2032,
        "meta_ephemeris_type": 0,
        "meta_classification_type": "U",
        "meta_norad_cat_id": 29833,
        "meta_element_set_no": 999,
        "meta_rev_at_epoch": 708,
        "meta_bstar": 0.001063,
        "meta_mean_motion_dot": 0.00011348,
        "meta_mean_motion_ddot": 0,
        "tle_line1": "1 29833U 99025EB  25355.91784701  .00011348  00000+0  10630-2 0  9995",
        "tle_line2": "2 29833  99.0777 339.6090 0088595 227.1713 132.2032 14.91292269  7087"
      },
      "geometry": {
        "type": "Point",
        "coordinates": [
          167.12159009682009,
          36.78085073957672
        ]
      }
    },
    {
      "type": "Feature",
      "properties": {
        "norad_id": 29835,
        "name": "FENGYUN 1C DEB",
        "group": "fengyun-1c-debris",
        "lat": 78.69965934203388,
        "lon": -1.844881938282816,
        "alt_km": 734.6735375560611,
        "timestamp": "2025-12-22T11:33:20.711018+00:00",
        "meta_object_name": "FENGYUN 1C DEB",
        "meta_object_id": "1999-025ED",
        "meta_epoch": "2025-12-21T20:43:57.473760",
        "meta_mean_motion": 14.43378169,
        "meta_eccentricity": 0.0167476,
        "meta_inclination": 99.0262,
        "meta_ra_of_asc_node": 124.8004,
        "meta_arg_of_pericenter": 10.2317,
        "meta_mean_anomaly": 117.1837,
        "meta_ephemeris_type": 0,
        "meta_classification_type": "U",
        "meta_norad_cat_id": 29835,
        "meta_element_set_no": 999,
        "meta_rev_at_epoch": 99626,
        "meta_bstar": 4.6747e-05,
        "meta_mean_motion_dot": 1.29e-06,
        "meta_mean_motion_ddot": 0,
        "tle_line1": "1 29835U 99025ED  25355.86385965  .00000129  00000+0  46747-4 0  9995",
        "tle_line2": "2 29835  99.0262 124.8004 0167476  10.2317 117.1837 14.43378169996267"
      },
      "geometry": {
        "type": "Point",
        "coordinates": [
          -1.844881938282816,
          78.69965934203388
        ]
      }
    },
    {
      "type": "Feature",
      "properties": {
        "norad_id": 29836,
        "name": "FENGYUN 1C DEB",
        "group": "fengyun-1c-debris",
        "lat": -0.044774396580796946,
        "lon": 92.22178672865725,
        "alt_km": 823.8999195396937,
        "timestamp": "2025-12-22T11:33:20.711027+00:00",
        "meta_object_name": "FENGYUN 1C DEB",
        "meta_object_id": "1999-025EE",
        "meta_epoch": "2025-12-20T18:52:00.569280",
        "meta_mean_motion": 14.54149605,
        "meta_eccentricity": 0.01549173,
        "meta_inclination": 98.188,
        "meta_ra_of_asc_node": 90.5561,
        "meta_arg_of_pericenter": 177.5236,
        "meta_mean_anomaly": 312.8448,
        "meta_ephemeris_type": 0,
        "meta_classification_type": "U",
        "meta_norad_cat_id": 29836,
        "meta_element_set_no": 999,
        "meta_rev_at_epoch": 63672,
        "meta_bstar": 0.00041409008,
        "meta_mean_motion_dot": 2.003e-05,
        "meta_mean_motion_ddot": 0,
        "tle_line1": "1 29836U 99025EE  25354.78611770  .00002003  00000+0  41409-3 0  9994",
        "tle_line2": "2 29836  98.1880  90.5561 0154917 177.5236 312.8448 14.54149605636721"
      },
      "geometry": {
        "type": "Point",
        "coordinates": [
          92.22178672865725,
          -0.044774396580796946
        ]
      }
    },
    {
      "type": "Feature",
      "properties": {
        "norad_id": 29841,
        "name": "FENGYUN 1C DEB",
        "group": "fengyun-1c-debris",
        "lat": 69.2656736547322,
        "lon": 148.24585414312082,
        "alt_km": 867.1486823936339,
        "timestamp": "2025-12-22T11:33:20.711037+00:00",
        "meta_object_name": "FENGYUN 1C DEB",
        "meta_object_id": "1999-025EK",
        "meta_epoch": "2025-12-21T09:05:13.506720",
        "meta_mean_motion": 14.46511571,
        "meta_eccentricity": 0.01999603,
        "meta_inclination": 98.82,
        "meta_ra_of_asc_node": 302.8828,
        "meta_arg_of_pericenter": 307.705,
        "meta_mean_anomaly": 180.6892,
        "meta_ephemeris_type": 0,
        "meta_classification_type": "U",
        "meta_norad_cat_id": 29841,
        "meta_element_set_no": 999,
        "meta_rev_at_epoch": 99448,
        "meta_bstar": 0.00037473783,
        "meta_mean_motion_dot": 1.67e-05,
        "meta_mean_motion_ddot": 0,
        "tle_line1": "1 29841U 99025EK  25355.37862855  .00001670  00000+0  37474-3 0  9994",
        "tle_line2": "2 29841  98.8200 302.8828 0199960 307.7050 180.6892 14.46511571994483"
      },
      "geometry": {
        "type": "Point",
        "coordinates": [
          148.24585414312082,
          69.2656736547322
        ]
      }
    },
    {
      "type": "Feature",
      "properties": {
        "norad_id": 29842,
        "name": "FENGYUN 1C DEB",
        "group": "fengyun-1c-debris",
        "lat": -76.11683785405565,
        "lon": 121.94301641485997,
        "alt_km": 762.5853618288802,
        "timestamp": "2025-12-22T11:33:20.711047+00:00",
        "meta_object_name": "FENGYUN 1C DEB",
        "meta_object_id": "1999-025EL",
        "meta_epoch": "2025-12-21T11:50:29.358240",
        "meta_mean_motion": 14.60357209,
        "meta_eccentricity": 0.01090691,
        "meta_inclination": 98.5692,
        "meta_ra_of_asc_node": 83.3272,
        "meta_arg_of_pericenter": 138.5339,
        "meta_mean_anomaly": 350.0776,
        "meta_ephemeris_type": 0,
        "meta_classification_type": "U",
        "meta_norad_cat_id": 29842,
        "meta_element_set_no": 999,
        "meta_rev_at_epoch": 99481,
        "meta_bstar": 0.00095083601,
        "meta_mean_motion_dot": 4.948e-05,
        "meta_mean_motion_ddot": 0,
        "tle_line1": "1 29842U 99025EL  25355.49339535  .00004948  00000+0  95084-3 0  9994",
        "tle_line2": "2 29842  98.5692  83.3272 0109069 138.5339 350.0776 14.60357209994814"
      },
      "geometry": {
        "type": "Point",
        "coordinates": [
          121.94301641485997,
          -76.11683785405565
        ]
      }
    }
  ]
}